{
  "type": "FeatureCollection",
  "name": "CDM Airspace Data",
  "crs": { "type": "name", "properties": { "name": "urn:ogc:def:crs:OGC:1.3:CRS84" } },
  "features": [
    {"type":"Feature","properties":{"id":"LB-SA/1","minFL":105,"maxFL":245},"geometry":{"type":"MultiPolygon","coordinates":[[[[24.276666666666667,43.56027777777778],[24.46638888888889,43.19027777777777],[24.553333333333335,43.01833333333333],[24.614444444444445,42.865],[24.620555555555555,42.84916666666667],[25.00638888888889,42.20638888888889],[24.866666666666667,42.2],[24.72472222222222,42.26277777777778],[24.470277777777778,42.374722222222225],[24.371111111111112,42.37583333333333],[24.029444444444444,42.52777777777778],[24.129444444444445,42.66027777777778],[24.16333333333333,42.705000000000005],[24.220555555555553,43.09527777777778],[23.80777777777778,43.151111111111106],[23.31277777777778,43.32833333333333],[23.09111111111111,43.39222222222222],[22.79416666666667,43.478611111111114],[22.492222222222225,43.56638888888889],[22.49277777777778,43.590833333333336],[22.49138888888889,43.61027777777778],[22.48888888888889,43.62694444444445],[22.489444444444445,43.64666666666667],[22.468055555555555,43.65694444444444],[22.442222222222224,43.67111111111111],[22.421111111111113,43.683055555555555],[22.409166666666664,43.69888888888889],[22.40138888888889,43.723333333333336],[22.398333333333333,43.740833333333335],[22.398888888888887,43.75944444444445],[22.380833333333335,43.77722222222222],[22.368333333333332,43.797777777777775],[22.363333333333333,43.8175],[22.37,43.83111111111111],[22.373055555555556,43.83388888888889],[22.385833333333334,43.85305555555556],[22.390555555555554,43.875],[22.393333333333334,43.89555555555555],[22.395833333333332,43.915277777777774],[22.397222222222222,43.933611111111105],[22.40722222222222,43.95],[22.415277777777778,43.97027777777778],[22.412499999999998,43.99],[22.422222222222224,44.00527777777778],[22.448888888888888,44.013888888888886],[22.47222222222222,44.01694444444444],[22.496944444444445,44.01861111111111],[22.525,44.01972222222222],[22.539166666666667,44.0325],[22.534722222222225,44.05138888888889],[22.563055555555557,44.05472222222222],[22.585277777777776,44.06055555555555],[22.610833333333336,44.065555555555555],[22.61416666666667,44.08444444444444],[22.611944444444447,44.10194444444445],[22.607222222222223,44.12083333333334],[22.618055555555557,44.13944444444444],[22.630833333333335,44.154444444444444],[22.62527777777778,44.169444444444444],[22.634999999999998,44.18805555555555],[22.656388888888888,44.19694444444444],[22.670555555555556,44.21138888888889],[22.67527777777778,44.21555555555556],[22.70138888888889,44.20472222222222],[22.726388888888888,44.20138888888889],[22.75111111111111,44.19638888888888],[22.769166666666667,44.178888888888885],[22.794444444444448,44.16277777777778],[22.82361111111111,44.15333333333333],[22.851666666666667,44.14277777777778],[22.875555555555557,44.130833333333335],[22.904999999999998,44.11361111111111],[22.93305555555556,44.10277777777778],[22.96222222222222,44.1],[22.991666666666667,44.10027777777778],[23.01527777777778,44.098333333333336],[23.035,44.085],[23.040555555555557,44.0625],[23.033055555555556,44.04222222222222],[23.019444444444442,44.026666666666664],[22.986944444444447,44.010555555555555],[22.956944444444442,44.003055555555555],[22.930555555555557,44],[22.901944444444442,43.99305555555556],[22.885833333333334,43.97916666666667],[22.87666666666667,43.96361111111111],[22.86861111111111,43.94499999999999],[22.860000000000003,43.92805555555555],[22.85027777777778,43.906388888888884],[22.843888888888888,43.88972222222222],[22.84472222222222,43.87138888888889],[22.857222222222223,43.849444444444444],[22.87472222222222,43.83888888888889],[22.897777777777776,43.831944444444446],[22.92888888888889,43.82777777777778],[22.95638888888889,43.81861111111112],[22.985,43.80888888888889],[23.014444444444443,43.80333333333333],[23.045555555555556,43.80138888888889],[23.072777777777777,43.803888888888885],[23.09638888888889,43.805],[23.126944444444444,43.809444444444445],[23.15138888888889,43.81361111111111],[23.176944444444445,43.824444444444445],[23.202777777777776,43.831944444444446],[23.23611111111111,43.83972222222222],[23.26527777777778,43.848333333333336],[23.29638888888889,43.85111111111111],[23.326666666666668,43.8525],[23.354444444444447,43.85138888888889],[23.383055555555558,43.852222222222224],[23.411666666666665,43.85638888888889],[23.443333333333335,43.85194444444445],[23.468888888888888,43.84583333333334],[23.495833333333334,43.83777777777778],[23.519444444444442,43.83027777777778],[23.5425,43.8175],[23.56722222222222,43.80722222222222],[23.596666666666664,43.79722222222222],[23.623055555555556,43.794999999999995],[23.649722222222223,43.79972222222222],[23.67361111111111,43.806666666666665],[23.6975,43.80916666666666],[23.732777777777777,43.80722222222222],[23.76,43.794999999999995],[23.784166666666668,43.78527777777778],[23.813055555555557,43.78055555555555],[23.83722222222222,43.77166666666667],[23.85888888888889,43.76166666666666],[23.88888888888889,43.75416666666667],[23.91333333333333,43.74944444444444],[23.93888888888889,43.746944444444445],[23.97222222222222,43.74611111111111],[23.998055555555556,43.74027777777778],[24.022222222222222,43.72833333333333],[24.05527777777778,43.72027777777778],[24.078333333333333,43.70861111111111],[24.111111111111114,43.70166666666667],[24.135833333333334,43.69472222222222],[24.16444444444444,43.68472222222222],[24.196944444444444,43.68444444444444],[24.225277777777777,43.68888888888888],[24.239166666666666,43.68888888888888],[24.276666666666667,43.56027777777778]]]]}},
    {"type":"Feature","properties":{"id":"LB-SA/2","minFL":245,"maxFL":660},"geometry":{"type":"MultiPolygon","coordinates":[[[[24.276666666666667,43.56027777777778],[24.46638888888889,43.19027777777777],[24.553333333333335,43.01833333333333],[24.614444444444445,42.865],[24.620555555555555,42.84916666666667],[25.00638888888889,42.20638888888889],[24.866666666666667,42.2],[24.72472222222222,42.26277777777778],[24.470277777777778,42.374722222222225],[24.371111111111112,42.37583333333333],[24.029444444444444,42.52777777777778],[22.797222222222224,42.97277777777778],[22.7875,42.976111111111116],[22.80388888888889,42.992222222222225],[22.834166666666665,42.998333333333335],[22.85388888888889,43.005],[22.869444444444444,43.01972222222222],[22.891666666666666,43.026944444444446],[22.906388888888888,43.045833333333334],[22.918055555555558,43.064166666666665],[22.93027777777778,43.08277777777778],[22.955555555555556,43.09],[22.96972222222222,43.105000000000004],[22.983333333333334,43.12444444444444],[22.991666666666667,43.14833333333333],[22.992222222222225,43.16583333333333],[22.99638888888889,43.18722222222222],[22.979444444444443,43.20416666666667],[22.954444444444444,43.20638888888889],[22.934444444444445,43.20944444444445],[22.912777777777777,43.21805555555556],[22.891666666666666,43.23388888888889],[22.87472222222222,43.25111111111111],[22.859444444444446,43.271388888888886],[22.84472222222222,43.2875],[22.833888888888886,43.30972222222222],[22.826944444444443,43.32944444444445],[22.799444444444447,43.340833333333336],[22.779722222222222,43.356944444444444],[22.766111111111112,43.37166666666667],[22.746111111111112,43.38527777777778],[22.71972222222222,43.39333333333333],[22.68722222222222,43.394999999999996],[22.668333333333333,43.405277777777776],[22.659166666666664,43.425555555555555],[22.63611111111111,43.43055555555555],[22.613055555555558,43.43083333333333],[22.591388888888886,43.44194444444444],[22.58361111111111,43.45944444444445],[22.558611111111112,43.46222222222222],[22.539444444444445,43.47027777777778],[22.5,43.49166666666667],[22.5,43.49944444444444],[22.502777777777776,43.53194444444444],[22.500833333333333,43.55083333333333],[22.498333333333335,43.55833333333333],[22.492222222222225,43.56638888888889],[22.49277777777778,43.590833333333336],[22.49138888888889,43.61027777777778],[22.48888888888889,43.62694444444445],[22.489444444444445,43.64666666666667],[22.468055555555555,43.65694444444444],[22.442222222222224,43.67111111111111],[22.421111111111113,43.683055555555555],[22.409166666666664,43.69888888888889],[22.40138888888889,43.723333333333336],[22.398333333333333,43.740833333333335],[22.398888888888887,43.75944444444445],[22.380833333333335,43.77722222222222],[22.368333333333332,43.797777777777775],[22.363333333333333,43.8175],[22.37,43.83111111111111],[22.373055555555556,43.83388888888889],[22.385833333333334,43.85305555555556],[22.390555555555554,43.875],[22.393333333333334,43.89555555555555],[22.395833333333332,43.915277777777774],[22.397222222222222,43.933611111111105],[22.40722222222222,43.95],[22.415277777777778,43.97027777777778],[22.412499999999998,43.99],[22.422222222222224,44.00527777777778],[22.448888888888888,44.013888888888886],[22.47222222222222,44.01694444444444],[22.496944444444445,44.01861111111111],[22.525,44.01972222222222],[22.539166666666667,44.0325],[22.534722222222225,44.05138888888889],[22.563055555555557,44.05472222222222],[22.585277777777776,44.06055555555555],[22.610833333333336,44.065555555555555],[22.61416666666667,44.08444444444444],[22.611944444444447,44.10194444444445],[22.607222222222223,44.12083333333334],[22.618055555555557,44.13944444444444],[22.630833333333335,44.154444444444444],[22.62527777777778,44.169444444444444],[22.634999999999998,44.18805555555555],[22.656388888888888,44.19694444444444],[22.670555555555556,44.21138888888889],[22.67527777777778,44.21555555555556],[22.70138888888889,44.20472222222222],[22.726388888888888,44.20138888888889],[22.75111111111111,44.19638888888888],[22.769166666666667,44.178888888888885],[22.794444444444448,44.16277777777778],[22.82361111111111,44.15333333333333],[22.851666666666667,44.14277777777778],[22.875555555555557,44.130833333333335],[22.904999999999998,44.11361111111111],[22.93305555555556,44.10277777777778],[22.96222222222222,44.1],[22.991666666666667,44.10027777777778],[23.01527777777778,44.098333333333336],[23.035,44.085],[23.040555555555557,44.0625],[23.033055555555556,44.04222222222222],[23.019444444444442,44.026666666666664],[22.986944444444447,44.010555555555555],[22.956944444444442,44.003055555555555],[22.930555555555557,44],[22.901944444444442,43.99305555555556],[22.885833333333334,43.97916666666667],[22.87666666666667,43.96361111111111],[22.86861111111111,43.94499999999999],[22.860000000000003,43.92805555555555],[22.85027777777778,43.906388888888884],[22.843888888888888,43.88972222222222],[22.84472222222222,43.87138888888889],[22.857222222222223,43.849444444444444],[22.87472222222222,43.83888888888889],[22.897777777777776,43.831944444444446],[22.92888888888889,43.82777777777778],[22.95638888888889,43.81861111111112],[22.985,43.80888888888889],[23.014444444444443,43.80333333333333],[23.045555555555556,43.80138888888889],[23.072777777777777,43.803888888888885],[23.09638888888889,43.805],[23.126944444444444,43.809444444444445],[23.15138888888889,43.81361111111111],[23.176944444444445,43.824444444444445],[23.202777777777776,43.831944444444446],[23.23611111111111,43.83972222222222],[23.26527777777778,43.848333333333336],[23.29638888888889,43.85111111111111],[23.326666666666668,43.8525],[23.354444444444447,43.85138888888889],[23.383055555555558,43.852222222222224],[23.411666666666665,43.85638888888889],[23.443333333333335,43.85194444444445],[23.468888888888888,43.84583333333334],[23.495833333333334,43.83777777777778],[23.519444444444442,43.83027777777778],[23.5425,43.8175],[23.56722222222222,43.80722222222222],[23.596666666666664,43.79722222222222],[23.623055555555556,43.794999999999995],[23.649722222222223,43.79972222222222],[23.67361111111111,43.806666666666665],[23.6975,43.80916666666666],[23.732777777777777,43.80722222222222],[23.76,43.794999999999995],[23.784166666666668,43.78527777777778],[23.813055555555557,43.78055555555555],[23.83722222222222,43.77166666666667],[23.85888888888889,43.76166666666666],[23.88888888888889,43.75416666666667],[23.91333333333333,43.74944444444444],[23.93888888888889,43.746944444444445],[23.97222222222222,43.74611111111111],[23.998055555555556,43.74027777777778],[24.022222222222222,43.72833333333333],[24.05527777777778,43.72027777777778],[24.078333333333333,43.70861111111111],[24.111111111111114,43.70166666666667],[24.135833333333334,43.69472222222222],[24.16444444444444,43.68472222222222],[24.196944444444444,43.68444444444444],[24.225277777777777,43.68888888888888],[24.239166666666666,43.68888888888888],[24.276666666666667,43.56027777777778]]]]}},
    {"type":"Feature","properties":{"id":"LB-SB/1","minFL":105,"maxFL":135},"geometry":{"type":"MultiPolygon","coordinates":[[[[24.239166666666666,43.68888888888888],[24.249444444444446,43.69333333333333],[24.266666666666666,43.7],[24.303055555555556,43.70027777777778],[24.325555555555557,43.69583333333333],[24.35027777777778,43.70027777777778],[24.379166666666666,43.713055555555556],[24.403055555555554,43.71888888888889],[24.428611111111113,43.72972222222222],[24.450555555555553,43.74055555555556],[24.47472222222222,43.75194444444445],[24.500833333333333,43.76222222222222],[24.529999999999998,43.76222222222222],[24.553333333333335,43.75944444444445],[24.57777777777778,43.75694444444444],[24.601666666666667,43.75222222222222],[24.62527777777778,43.74333333333333],[24.64638888888889,43.730555555555554],[24.66916666666667,43.72166666666667],[24.6925,43.71638888888889],[24.722499999999997,43.711111111111116],[24.748055555555556,43.71138888888889],[24.774444444444445,43.714444444444446],[24.802777777777777,43.714444444444446],[24.825833333333332,43.715833333333336],[24.856944444444444,43.709722222222226],[24.88138888888889,43.71138888888889],[24.905555555555555,43.716944444444444],[24.929166666666667,43.724444444444444],[24.959722222222222,43.73083333333334],[24.987222222222222,43.73222222222223],[25.00888888888889,43.72083333333334],[25.02861111111111,43.70916666666667],[25.053333333333335,43.6975],[25.079166666666666,43.69277777777778],[25.100833333333334,43.68722222222222],[25.134999999999998,43.69027777777777],[25.161944444444444,43.69027777777777],[25.185555555555556,43.690555555555555],[25.210555555555555,43.689722222222215],[25.24527777777778,43.68555555555555],[25.271944444444443,43.672777777777775],[25.290000000000003,43.66083333333333],[25.32138888888889,43.651111111111106],[25.336944444444445,43.63611111111111],[25.363333333333333,43.625277777777775],[25.389166666666664,43.62305555555555],[25.415,43.62555555555556],[25.439166666666665,43.632222222222225],[25.466944444444444,43.64138888888889],[25.499166666666667,43.64694444444444],[25.546666666666667,43.63722222222222],[25.56638888888889,43.64972222222222],[25.58972222222222,43.6575],[25.61277777777778,43.66777777777777],[25.62777777777778,43.675],[26.206666666666667,43.2575],[26.14527777777778,43.255833333333335],[26.022777777777776,43.33638888888889],[25.420833333333334,43.349722222222226],[25.159166666666664,43.2175],[24.974166666666665,43.21055555555556],[24.98611111111111,43.04388888888889],[25.170833333333334,43.05083333333333],[25.56638888888889,43.032777777777774],[25.9,42.97833333333333],[26.15861111111111,43.08916666666667],[26.425833333333333,43.097500000000004],[26.666666666666668,42.983333333333334],[26.769166666666667,42.8975],[26.76833333333333,42.82833333333333],[26.236666666666668,42.80972222222222],[26.141944444444444,42.751666666666665],[26.228888888888886,42.681666666666665],[26.189444444444444,42.59],[24.614444444444445,42.865],[24.553333333333335,43.01833333333333],[24.46638888888889,43.19027777777777],[24.276666666666667,43.56027777777778],[24.239166666666666,43.68888888888888]]]]}},
    {"type":"Feature","properties":{"id":"LB-SB/2","minFL":135,"maxFL":215},"geometry":{"type":"MultiPolygon","coordinates":[[[[24.276666666666667,43.56027777777778],[24.239166666666666,43.68888888888888],[24.249444444444446,43.69333333333333],[24.266666666666666,43.7],[24.303055555555556,43.70027777777778],[24.325555555555557,43.69583333333333],[24.35027777777778,43.70027777777778],[24.379166666666666,43.713055555555556],[24.403055555555554,43.71888888888889],[24.428611111111113,43.72972222222222],[24.450555555555553,43.74055555555556],[24.47472222222222,43.75194444444445],[24.500833333333333,43.76222222222222],[24.529999999999998,43.76222222222222],[24.553333333333335,43.75944444444445],[24.57777777777778,43.75694444444444],[24.601666666666667,43.75222222222222],[24.62527777777778,43.74333333333333],[24.64638888888889,43.730555555555554],[24.66916666666667,43.72166666666667],[24.6925,43.71638888888889],[24.722499999999997,43.711111111111116],[24.748055555555556,43.71138888888889],[24.774444444444445,43.714444444444446],[24.802777777777777,43.714444444444446],[24.825833333333332,43.715833333333336],[24.856944444444444,43.709722222222226],[24.88138888888889,43.71138888888889],[24.905555555555555,43.716944444444444],[24.929166666666667,43.724444444444444],[24.959722222222222,43.73083333333334],[24.987222222222222,43.73222222222223],[25.00888888888889,43.72083333333334],[25.02861111111111,43.70916666666667],[25.053333333333335,43.6975],[25.079166666666666,43.69277777777778],[25.100833333333334,43.68722222222222],[25.134999999999998,43.69027777777777],[25.161944444444444,43.69027777777777],[25.185555555555556,43.690555555555555],[25.210555555555555,43.689722222222215],[25.24527777777778,43.68555555555555],[25.271944444444443,43.672777777777775],[25.290000000000003,43.66083333333333],[25.32138888888889,43.651111111111106],[25.336944444444445,43.63611111111111],[25.363333333333333,43.625277777777775],[25.389166666666664,43.62305555555555],[25.415,43.62555555555556],[25.439166666666665,43.632222222222225],[25.466944444444444,43.64138888888889],[25.499166666666667,43.64694444444444],[25.546666666666667,43.63722222222222],[25.56638888888889,43.64972222222222],[25.58972222222222,43.6575],[25.61277777777778,43.66777777777777],[25.62777777777778,43.675],[26.206666666666667,43.257777777777775],[26.425833333333333,43.097500000000004],[26.666666666666668,42.983333333333334],[26.769166666666667,42.8975],[26.76833333333333,42.82833333333333],[26.236666666666668,42.80972222222222],[26.141944444444444,42.751666666666665],[26.228888888888886,42.681666666666665],[26.189444444444444,42.59],[24.614444444444445,42.865],[24.553333333333335,43.01833333333333],[24.46638888888889,43.19027777777777],[24.276666666666667,43.56027777777778]]]]}},
    {"type":"Feature","properties":{"id":"LB-SB/3","minFL":215,"maxFL":245},"geometry":{"type":"MultiPolygon","coordinates":[[[[24.276666666666667,43.56027777777778],[24.239166666666666,43.68888888888888],[24.249444444444446,43.69333333333333],[24.266666666666666,43.7],[24.303055555555556,43.70027777777778],[24.325555555555557,43.69583333333333],[24.35027777777778,43.70027777777778],[24.379166666666666,43.713055555555556],[24.403055555555554,43.71888888888889],[24.428611111111113,43.72972222222222],[24.450555555555553,43.74055555555556],[24.47472222222222,43.75194444444445],[24.500833333333333,43.76222222222222],[24.529999999999998,43.76222222222222],[24.553333333333335,43.75944444444445],[24.57777777777778,43.75694444444444],[24.601666666666667,43.75222222222222],[24.62527777777778,43.74333333333333],[24.64638888888889,43.730555555555554],[24.66916666666667,43.72166666666667],[24.6925,43.71638888888889],[24.722499999999997,43.711111111111116],[24.748055555555556,43.71138888888889],[24.774444444444445,43.714444444444446],[24.802777777777777,43.714444444444446],[24.825833333333332,43.715833333333336],[24.856944444444444,43.709722222222226],[24.88138888888889,43.71138888888889],[24.905555555555555,43.716944444444444],[24.929166666666667,43.724444444444444],[24.959722222222222,43.73083333333334],[24.987222222222222,43.73222222222223],[25.00888888888889,43.72083333333334],[25.02861111111111,43.70916666666667],[25.053333333333335,43.6975],[25.079166666666666,43.69277777777778],[25.100833333333334,43.68722222222222],[25.134999999999998,43.69027777777777],[25.161944444444444,43.69027777777777],[25.185555555555556,43.690555555555555],[25.210555555555555,43.689722222222215],[25.24527777777778,43.68555555555555],[25.271944444444443,43.672777777777775],[25.290000000000003,43.66083333333333],[25.32138888888889,43.651111111111106],[25.336944444444445,43.63611111111111],[25.363333333333333,43.625277777777775],[25.389166666666664,43.62305555555555],[25.415,43.62555555555556],[25.439166666666665,43.632222222222225],[25.466944444444444,43.64138888888889],[25.499166666666667,43.64694444444444],[25.546666666666667,43.63722222222222],[25.56638888888889,43.64972222222222],[25.58972222222222,43.6575],[25.61277777777778,43.66777777777777],[25.62777777777778,43.675],[26.206666666666667,43.257777777777775],[26.425833333333333,43.097500000000004],[26.666666666666668,42.983333333333334],[26.769166666666667,42.8975],[26.879444444444445,42.83083333333334],[26.76833333333333,42.82833333333333],[26.236666666666668,42.80972222222222],[26.141944444444444,42.751666666666665],[26.228888888888886,42.681666666666665],[26.189444444444444,42.59],[24.614444444444445,42.865],[24.553333333333335,43.01833333333333],[24.46638888888889,43.19027777777777],[24.276666666666667,43.56027777777778]]]]}},
    {"type":"Feature","properties":{"id":"LB-SB/4","minFL":245,"maxFL":660},"geometry":{"type":"MultiPolygon","coordinates":[[[[24.276666666666667,43.56027777777778],[24.239166666666666,43.68888888888888],[24.249444444444446,43.69333333333333],[24.266666666666666,43.7],[24.303055555555556,43.70027777777778],[24.325555555555557,43.69583333333333],[24.35027777777778,43.70027777777778],[24.379166666666666,43.713055555555556],[24.403055555555554,43.71888888888889],[24.428611111111113,43.72972222222222],[24.450555555555553,43.74055555555556],[24.47472222222222,43.75194444444445],[24.500833333333333,43.76222222222222],[24.529999999999998,43.76222222222222],[24.553333333333335,43.75944444444445],[24.57777777777778,43.75694444444444],[24.601666666666667,43.75222222222222],[24.62527777777778,43.74333333333333],[24.64638888888889,43.730555555555554],[24.66916666666667,43.72166666666667],[24.6925,43.71638888888889],[24.722499999999997,43.711111111111116],[25.0025,43.973333333333336],[25.375555555555557,43.97833333333333],[25.460833333333333,43.80888888888889],[25.62777777777778,43.675],[26.206666666666667,43.257777777777775],[26.425833333333333,43.097500000000004],[26.666666666666668,42.983333333333334],[26.769166666666667,42.8975],[26.879444444444445,42.83083333333334],[26.76833333333333,42.82833333333333],[26.236666666666668,42.80972222222222],[26.141944444444444,42.751666666666665],[26.228888888888886,42.681666666666665],[26.189444444444444,42.59],[24.614444444444445,42.865],[24.553333333333335,43.01833333333333],[24.46638888888889,43.19027777777777],[24.276666666666667,43.56027777777778]]]]}},
    {"type":"Feature","properties":{"id":"LB-SC/1","minFL":105,"maxFL":135},"geometry":{"type":"MultiPolygon","coordinates":[[[[24.42638888888889,42.11388888888889],[24.53222222222222,42.038888888888884],[24.75,41.95],[25.103611111111114,41.80416666666667],[25.209166666666665,41.794444444444444],[25.524166666666666,41.276666666666664],[25.478888888888886,41.28916666666667],[25.33277777777778,41.240833333333335],[25.235277777777778,41.24722222222222],[25.119444444444444,41.34305555555556],[25.05138888888889,41.36611111111111],[24.913888888888888,41.405833333333334],[24.82361111111111,41.39416666666666],[24.80777777777778,41.348888888888894],[24.71944444444444,41.42055555555555],[24.656666666666666,41.416666666666664],[24.65361111111111,41.43472222222222],[24.616111111111113,41.41916666666666],[24.53527777777778,41.56722222222223],[24.473888888888887,41.55222222222222],[24.388055555555557,41.526944444444446],[24.308611111111112,41.51111111111111],[24.2675,41.56944444444445],[24.1825,41.516666666666666],[24.099166666666665,41.54694444444444],[24.060000000000002,41.51777777777777],[24.065833333333334,41.463055555555556],[24.0325,41.456944444444446],[23.998333333333335,41.44888888888889],[23.971944444444443,41.43527777777778],[23.920555555555556,41.47833333333333],[23.845555555555553,41.44194444444444],[23.765555555555554,41.40138888888889],[23.7125,41.40472222222222],[23.661666666666665,41.401944444444446],[23.648611111111112,41.37638888888889],[23.4375,41.403888888888886],[23.341388888888886,41.36416666666667],[23.301666666666666,41.40277777777778],[23.280277777777776,41.39472222222222],[23.235277777777778,41.37638888888889],[23.20583333333333,41.31472222222222],[22.944444444444446,41.33527777777778],[22.96,41.35388888888889],[22.965,41.36944444444445],[22.96527777777778,41.39],[22.954722222222223,41.409444444444446],[22.960277777777776,41.425555555555555],[22.974999999999998,41.44083333333333],[22.96611111111111,41.45527777777778],[22.960833333333333,41.47222222222222],[22.954444444444444,41.49277777777778],[22.96638888888889,41.50805555555556],[22.965555555555554,41.525],[22.96611111111111,41.54277777777778],[22.968055555555555,41.55916666666666],[22.96222222222222,41.57888888888889],[22.949722222222224,41.59527777777778],[22.951944444444443,41.61194444444445],[22.948611111111113,41.62888888888889],[22.959166666666665,41.64416666666666],[22.981666666666666,41.646388888888886],[22.982499999999998,41.66722222222222],[23.00027777777778,41.68055555555555],[23.009166666666665,41.697222222222216],[23.024444444444445,41.71472222222223],[23.024166666666666,41.73583333333333],[23.00888888888889,41.75805555555556],[22.989722222222223,41.76972222222222],[22.96527777777778,41.77027777777778],[22.962777777777777,41.78527777777778],[22.94611111111111,41.803888888888885],[22.93861111111111,41.82611111111112],[22.9325,41.84305555555556],[22.91861111111111,41.86361111111111],[22.90222222222222,41.87833333333333],[22.894166666666667,41.899166666666666],[22.89,41.91777777777777],[22.874444444444446,41.93472222222222],[22.871666666666666,41.952222222222225],[22.873333333333335,41.971944444444446],[22.870555555555555,41.99305555555556],[22.863333333333333,42.00833333333333],[22.86416666666667,42.022777777777776],[22.837777777777777,42.02027777777778],[22.815555555555555,42.02833333333333],[22.80138888888889,42.04472222222222],[22.779999999999998,42.04083333333333],[22.755,42.04555555555555],[22.734444444444446,42.04388888888889],[22.722777777777775,42.062777777777775],[22.701944444444443,42.06472222222222],[22.674722222222222,42.06888888888889],[22.6525,42.07777777777778],[22.6325,42.094166666666666],[22.60388888888889,42.10027777777778],[22.584444444444443,42.11],[22.561111111111114,42.125277777777775],[22.540000000000003,42.138888888888886],[22.519166666666667,42.150555555555556],[22.510833333333334,42.166666666666664],[22.504444444444445,42.18527777777778],[22.48888888888889,42.19888888888889],[22.464444444444442,42.20861111111111],[22.45611111111111,42.22833333333333],[22.44361111111111,42.24277777777778],[22.430833333333336,42.25944444444445],[22.411944444444444,42.2725],[22.360277777777778,42.31111111111111],[22.366666666666667,42.31666666666667],[22.404166666666665,42.33388888888889],[22.430555555555557,42.328611111111115],[22.45611111111111,42.33388888888889],[22.46222222222222,42.35638888888889],[22.46722222222222,42.3725],[22.480555555555554,42.39],[22.5075,42.396388888888886],[22.523055555555555,42.40861111111111],[22.5375,42.42111111111111],[22.530833333333334,42.43611111111111],[22.538333333333334,42.458333333333336],[22.551666666666666,42.47166666666667],[22.55388888888889,42.48916666666667],[22.548333333333336,42.50833333333333],[22.529166666666665,42.521388888888886],[22.50638888888889,42.53361111111111],[22.490277777777777,42.547777777777775],[22.47222222222222,42.559999999999995],[22.453055555555554,42.56888888888889],[22.44,42.584722222222226],[22.454444444444444,42.60388888888889],[22.4575,42.623333333333335],[22.462777777777777,42.64277777777778],[22.462777777777777,42.655],[22.471666666666664,42.67194444444444],[22.460277777777776,42.68805555555555],[22.472777777777775,42.696666666666665],[22.47611111111111,42.713055555555556],[22.493333333333336,42.73027777777778],[22.494444444444447,42.7475],[22.47611111111111,42.76138888888889],[22.461111111111112,42.776666666666664],[22.454444444444444,42.794999999999995],[22.441944444444445,42.80833333333333],[22.44527777777778,42.82638888888889],[22.46944444444444,42.83527777777778],[22.486944444444447,42.845555555555556],[22.5075,42.85611111111111],[22.518055555555556,42.87361111111111],[22.539722222222224,42.87833333333333],[22.56138888888889,42.871944444444445],[22.578333333333333,42.88472222222222],[22.601111111111113,42.89333333333333],[22.623333333333335,42.89083333333333],[22.649166666666666,42.88194444444444],[22.691666666666666,42.269999999999996],[23.173333333333336,42.286944444444444],[23.36277777777778,42.29333333333333],[23.90694444444444,42.30916666666666],[24.078055555555554,42.31361111111111],[24.25583333333333,42.23416666666667],[24.42638888888889,42.11388888888889]]]]}},
    {"type":"Feature","properties":{"id":"LB-SC/2","minFL":135,"maxFL":245},"geometry":{"type":"MultiPolygon","coordinates":[[[[24.371111111111112,42.37583333333333],[24.470277777777778,42.374722222222225],[24.72472222222222,42.26277777777778],[24.866666666666667,42.2],[25.00638888888889,42.20638888888889],[25.209166666666665,41.794444444444444],[25.524166666666666,41.276666666666664],[25.478888888888886,41.28916666666667],[25.33277777777778,41.240833333333335],[25.235277777777778,41.24722222222222],[25.119444444444444,41.34305555555556],[25.05138888888889,41.36611111111111],[24.913888888888888,41.405833333333334],[24.82361111111111,41.39416666666666],[24.80777777777778,41.348888888888894],[24.71944444444444,41.42055555555555],[24.656666666666666,41.416666666666664],[24.65361111111111,41.43472222222222],[24.616111111111113,41.41916666666666],[24.53527777777778,41.56722222222223],[24.473888888888887,41.55222222222222],[24.388055555555557,41.526944444444446],[24.308611111111112,41.51111111111111],[24.2675,41.56944444444445],[24.1825,41.516666666666666],[24.099166666666665,41.54694444444444],[24.060000000000002,41.51777777777777],[24.065833333333334,41.463055555555556],[24.0325,41.456944444444446],[23.998333333333335,41.44888888888889],[23.971944444444443,41.43527777777778],[23.920555555555556,41.47833333333333],[23.845555555555553,41.44194444444444],[23.765555555555554,41.40138888888889],[23.7125,41.40472222222222],[23.661666666666665,41.401944444444446],[23.648611111111112,41.37638888888889],[23.4375,41.403888888888886],[23.341388888888886,41.36416666666667],[23.301666666666666,41.40277777777778],[23.280277777777776,41.39472222222222],[23.235277777777778,41.37638888888889],[23.20583333333333,41.31472222222222],[22.944444444444446,41.33527777777778],[22.96,41.35388888888889],[22.965,41.36944444444445],[22.96527777777778,41.39],[22.954722222222223,41.409444444444446],[22.960277777777776,41.425555555555555],[22.974999999999998,41.44083333333333],[22.96611111111111,41.45527777777778],[22.960833333333333,41.47222222222222],[22.954444444444444,41.49277777777778],[22.96638888888889,41.50805555555556],[22.965555555555554,41.525],[22.96611111111111,41.54277777777778],[22.968055555555555,41.55916666666666],[22.96222222222222,41.57888888888889],[22.949722222222224,41.59527777777778],[22.951944444444443,41.61194444444445],[22.948611111111113,41.62888888888889],[22.959166666666665,41.64416666666666],[22.981666666666666,41.646388888888886],[22.982499999999998,41.66722222222222],[23.00027777777778,41.68055555555555],[23.009166666666665,41.697222222222216],[23.024444444444445,41.71472222222223],[23.024166666666666,41.73583333333333],[23.00888888888889,41.75805555555556],[22.989722222222223,41.76972222222222],[22.96527777777778,41.77027777777778],[22.962777777777777,41.78527777777778],[22.94611111111111,41.803888888888885],[22.93861111111111,41.82611111111112],[22.9325,41.84305555555556],[22.91861111111111,41.86361111111111],[22.90222222222222,41.87833333333333],[22.894166666666667,41.899166666666666],[22.89,41.91777777777777],[22.874444444444446,41.93472222222222],[22.871666666666666,41.952222222222225],[22.873333333333335,41.971944444444446],[22.870555555555555,41.99305555555556],[22.863333333333333,42.00833333333333],[22.86416666666667,42.022777777777776],[22.837777777777777,42.02027777777778],[22.815555555555555,42.02833333333333],[22.80138888888889,42.04472222222222],[22.779999999999998,42.04083333333333],[22.755,42.04555555555555],[22.734444444444446,42.04388888888889],[22.722777777777775,42.062777777777775],[22.701944444444443,42.06472222222222],[22.674722222222222,42.06888888888889],[22.6525,42.07777777777778],[22.6325,42.094166666666666],[22.60388888888889,42.10027777777778],[22.584444444444443,42.11],[22.561111111111114,42.125277777777775],[22.540000000000003,42.138888888888886],[22.519166666666667,42.150555555555556],[22.510833333333334,42.166666666666664],[22.504444444444445,42.18527777777778],[22.48888888888889,42.19888888888889],[22.464444444444442,42.20861111111111],[22.45611111111111,42.22833333333333],[22.44361111111111,42.24277777777778],[22.430833333333336,42.25944444444445],[22.411944444444444,42.2725],[22.360277777777778,42.31111111111111],[22.366666666666667,42.31666666666667],[22.404166666666665,42.33388888888889],[22.430555555555557,42.328611111111115],[22.45611111111111,42.33388888888889],[22.46222222222222,42.35638888888889],[22.46722222222222,42.3725],[22.480555555555554,42.39],[22.5075,42.396388888888886],[22.523055555555555,42.40861111111111],[22.5375,42.42111111111111],[22.530833333333334,42.43611111111111],[22.538333333333334,42.458333333333336],[22.551666666666666,42.47166666666667],[22.55388888888889,42.48916666666667],[22.548333333333336,42.50833333333333],[22.529166666666665,42.521388888888886],[22.50638888888889,42.53361111111111],[22.490277777777777,42.547777777777775],[22.47222222222222,42.559999999999995],[22.453055555555554,42.56888888888889],[22.44,42.584722222222226],[22.454444444444444,42.60388888888889],[22.4575,42.623333333333335],[22.462777777777777,42.64277777777778],[22.462777777777777,42.655],[22.471666666666664,42.67194444444444],[22.460277777777776,42.68805555555555],[22.472777777777775,42.696666666666665],[22.47611111111111,42.713055555555556],[22.493333333333336,42.73027777777778],[22.494444444444447,42.7475],[22.47611111111111,42.76138888888889],[22.461111111111112,42.776666666666664],[22.454444444444444,42.794999999999995],[22.441944444444445,42.80833333333333],[22.44527777777778,42.82638888888889],[22.46944444444444,42.83527777777778],[22.486944444444447,42.845555555555556],[22.5075,42.85611111111111],[22.518055555555556,42.87361111111111],[22.539722222222224,42.87833333333333],[22.56138888888889,42.871944444444445],[22.578333333333333,42.88472222222222],[22.601111111111113,42.89333333333333],[22.623333333333335,42.89083333333333],[22.649166666666666,42.88194444444444],[22.691666666666666,42.269999999999996],[23.173333333333336,42.286944444444444],[23.36277777777778,42.29333333333333],[23.90694444444444,42.30916666666666],[24.078055555555554,42.31361111111111],[24.25583333333333,42.23416666666667],[24.371111111111112,42.37583333333333]]]]}},
    {"type":"Feature","properties":{"id":"LB-SC/3","minFL":245,"maxFL":660},"geometry":{"type":"MultiPolygon","coordinates":[[[[22.797222222222224,42.97277777777778],[24.029444444444444,42.52777777777778],[24.371111111111112,42.37583333333333],[24.470277777777778,42.374722222222225],[24.72472222222222,42.26277777777778],[24.866666666666667,42.2],[25.00638888888889,42.20638888888889],[25.209166666666665,41.794444444444444],[25.524166666666666,41.276666666666664],[25.478888888888886,41.28916666666667],[25.33277777777778,41.240833333333335],[25.235277777777778,41.24722222222222],[25.119444444444444,41.34305555555556],[25.05138888888889,41.36611111111111],[24.913888888888888,41.405833333333334],[24.82361111111111,41.39416666666666],[24.80777777777778,41.348888888888894],[24.71944444444444,41.42055555555555],[24.656666666666666,41.416666666666664],[24.65361111111111,41.43472222222222],[24.616111111111113,41.41916666666666],[24.53527777777778,41.56722222222223],[24.473888888888887,41.55222222222222],[24.388055555555557,41.526944444444446],[24.308611111111112,41.51111111111111],[24.2675,41.56944444444445],[24.1825,41.516666666666666],[24.099166666666665,41.54694444444444],[24.060000000000002,41.51777777777777],[24.065833333333334,41.463055555555556],[24.0325,41.456944444444446],[23.998333333333335,41.44888888888889],[23.971944444444443,41.43527777777778],[23.920555555555556,41.47833333333333],[23.845555555555553,41.44194444444444],[23.765555555555554,41.40138888888889],[23.7125,41.40472222222222],[23.661666666666665,41.401944444444446],[23.648611111111112,41.37638888888889],[23.4375,41.403888888888886],[23.341388888888886,41.36416666666667],[23.301666666666666,41.40277777777778],[23.280277777777776,41.39472222222222],[23.235277777777778,41.37638888888889],[23.20583333333333,41.31472222222222],[22.944444444444446,41.33527777777778],[22.96,41.35388888888889],[22.965,41.36944444444445],[22.96527777777778,41.39],[22.954722222222223,41.409444444444446],[22.960277777777776,41.425555555555555],[22.974999999999998,41.44083333333333],[22.96611111111111,41.45527777777778],[22.960833333333333,41.47222222222222],[22.954444444444444,41.49277777777778],[22.96638888888889,41.50805555555556],[22.965555555555554,41.525],[22.96611111111111,41.54277777777778],[22.968055555555555,41.55916666666666],[22.96222222222222,41.57888888888889],[22.949722222222224,41.59527777777778],[22.951944444444443,41.61194444444445],[22.948611111111113,41.62888888888889],[22.959166666666665,41.64416666666666],[22.981666666666666,41.646388888888886],[22.982499999999998,41.66722222222222],[23.00027777777778,41.68055555555555],[23.009166666666665,41.697222222222216],[23.024444444444445,41.71472222222223],[23.024166666666666,41.73583333333333],[23.00888888888889,41.75805555555556],[22.989722222222223,41.76972222222222],[22.96527777777778,41.77027777777778],[22.962777777777777,41.78527777777778],[22.94611111111111,41.803888888888885],[22.93861111111111,41.82611111111112],[22.9325,41.84305555555556],[22.91861111111111,41.86361111111111],[22.90222222222222,41.87833333333333],[22.894166666666667,41.899166666666666],[22.89,41.91777777777777],[22.874444444444446,41.93472222222222],[22.871666666666666,41.952222222222225],[22.873333333333335,41.971944444444446],[22.870555555555555,41.99305555555556],[22.863333333333333,42.00833333333333],[22.86416666666667,42.022777777777776],[22.837777777777777,42.02027777777778],[22.815555555555555,42.02833333333333],[22.80138888888889,42.04472222222222],[22.779999999999998,42.04083333333333],[22.755,42.04555555555555],[22.734444444444446,42.04388888888889],[22.722777777777775,42.062777777777775],[22.701944444444443,42.06472222222222],[22.674722222222222,42.06888888888889],[22.6525,42.07777777777778],[22.6325,42.094166666666666],[22.60388888888889,42.10027777777778],[22.584444444444443,42.11],[22.561111111111114,42.125277777777775],[22.540000000000003,42.138888888888886],[22.519166666666667,42.150555555555556],[22.510833333333334,42.166666666666664],[22.504444444444445,42.18527777777778],[22.48888888888889,42.19888888888889],[22.464444444444442,42.20861111111111],[22.45611111111111,42.22833333333333],[22.44361111111111,42.24277777777778],[22.430833333333336,42.25944444444445],[22.411944444444444,42.2725],[22.360277777777778,42.31111111111111],[22.366666666666667,42.31666666666667],[22.404166666666665,42.33388888888889],[22.430555555555557,42.328611111111115],[22.45611111111111,42.33388888888889],[22.46222222222222,42.35638888888889],[22.46722222222222,42.3725],[22.480555555555554,42.39],[22.5075,42.396388888888886],[22.523055555555555,42.40861111111111],[22.5375,42.42111111111111],[22.530833333333334,42.43611111111111],[22.538333333333334,42.458333333333336],[22.551666666666666,42.47166666666667],[22.55388888888889,42.48916666666667],[22.548333333333336,42.50833333333333],[22.529166666666665,42.521388888888886],[22.50638888888889,42.53361111111111],[22.490277777777777,42.547777777777775],[22.47222222222222,42.559999999999995],[22.453055555555554,42.56888888888889],[22.44,42.584722222222226],[22.454444444444444,42.60388888888889],[22.4575,42.623333333333335],[22.462777777777777,42.64277777777778],[22.462777777777777,42.655],[22.471666666666664,42.67194444444444],[22.460277777777776,42.68805555555555],[22.472777777777775,42.696666666666665],[22.47611111111111,42.713055555555556],[22.493333333333336,42.73027777777778],[22.494444444444447,42.7475],[22.47611111111111,42.76138888888889],[22.461111111111112,42.776666666666664],[22.454444444444444,42.794999999999995],[22.441944444444445,42.80833333333333],[22.44527777777778,42.82638888888889],[22.46944444444444,42.83527777777778],[22.486944444444447,42.845555555555556],[22.5075,42.85611111111111],[22.518055555555556,42.87361111111111],[22.539722222222224,42.87833333333333],[22.56138888888889,42.871944444444445],[22.578333333333333,42.88472222222222],[22.601111111111113,42.89333333333333],[22.623333333333335,42.89083333333333],[22.649166666666666,42.88194444444444],[22.673333333333336,42.87222222222222],[22.68888888888889,42.880833333333335],[22.7125,42.88666666666666],[22.738333333333333,42.88972222222222],[22.754722222222224,42.905],[22.765833333333333,42.921388888888885],[22.77638888888889,42.9375],[22.783055555555556,42.95444444444445],[22.7875,42.976111111111116],[22.797222222222224,42.97277777777778]]]]}},
    {"type":"Feature","properties":{"id":"LB-SD/1","minFL":105,"maxFL":135},"geometry":{"type":"MultiPolygon","coordinates":[[[[24.614444444444445,42.865],[26.189444444444444,42.59],[26.153888888888886,42.50694444444444],[26.925833333333333,41.99638888888889],[26.747500000000002,41.95055555555556],[26.616111111111113,41.98111111111111],[26.560000000000002,41.911944444444444],[26.547500000000003,41.836111111111116],[26.369444444444444,41.81527777777777],[26.328611111111112,41.731944444444444],[26.363333333333333,41.7075],[26.155555555555555,41.74472222222222],[26.058611111111112,41.69888888888889],[26.070555555555554,41.647777777777776],[26.142222222222223,41.611111111111114],[26.147777777777776,41.556666666666665],[26.183333333333334,41.5325],[26.152777777777775,41.484722222222224],[26.19361111111111,41.440555555555555],[26.122222222222224,41.35861111111111],[26.02027777777778,41.35111111111111],[25.980833333333333,41.32055555555556],[25.898611111111112,41.306666666666665],[25.82,41.343333333333334],[25.722777777777775,41.316944444444445],[25.706666666666667,41.288333333333334],[25.56972222222222,41.31583333333333],[25.524166666666666,41.276666666666664],[25.209166666666665,41.794444444444444],[25.399444444444445,41.77722222222222],[25.421111111111113,41.89388888888889],[25.44,41.99583333333334],[25.452222222222222,42.06083333333333],[25.467499999999998,42.141666666666666],[25.233333333333334,42.21666666666667],[25.00638888888889,42.20638888888889],[24.620555555555555,42.84916666666667],[24.614444444444445,42.865]]]]}},
    {"type":"Feature","properties":{"id":"LB-SD/2","minFL":135,"maxFL":660},"geometry":{"type":"MultiPolygon","coordinates":[[[[24.614444444444445,42.865],[26.189444444444444,42.59],[26.153888888888886,42.50694444444444],[26.925833333333333,41.99638888888889],[26.747500000000002,41.95055555555556],[26.616111111111113,41.98111111111111],[26.560000000000002,41.911944444444444],[26.547500000000003,41.836111111111116],[26.369444444444444,41.81527777777777],[26.328611111111112,41.731944444444444],[26.363333333333333,41.7075],[26.155555555555555,41.74472222222222],[26.058611111111112,41.69888888888889],[26.070555555555554,41.647777777777776],[26.142222222222223,41.611111111111114],[26.147777777777776,41.556666666666665],[26.183333333333334,41.5325],[26.152777777777775,41.484722222222224],[26.19361111111111,41.440555555555555],[26.122222222222224,41.35861111111111],[26.02027777777778,41.35111111111111],[25.980833333333333,41.32055555555556],[25.898611111111112,41.306666666666665],[25.82,41.343333333333334],[25.722777777777775,41.316944444444445],[25.706666666666667,41.288333333333334],[25.56972222222222,41.31583333333333],[25.524166666666666,41.276666666666664],[25.209166666666665,41.794444444444444],[25.00638888888889,42.20638888888889],[24.620555555555555,42.84916666666667],[24.614444444444445,42.865]]]]}},
    {"type":"Feature","properties":{"id":"LB-SE/1","minFL":105,"maxFL":215},"geometry":{"type":"MultiPolygon","coordinates":[[[[26.153888888888886,42.50694444444444],[26.189444444444444,42.59],[26.228888888888886,42.681666666666665],[26.942777777777778,42.302499999999995],[27,42.166666666666664],[27.172222222222224,42.17944444444444],[27.296944444444446,42.12222222222222],[27.59722222222222,41.93805555555555],[27.54527777777778,41.91888888888889],[27.36916666666667,42.052499999999995],[27.28611111111111,42.10027777777778],[27.18027777777778,42.06333333333333],[27.029999999999998,42.07972222222222],[26.96861111111111,42],[26.925833333333333,41.99638888888889],[26.153888888888886,42.50694444444444]]]]}},
    {"type":"Feature","properties":{"id":"LB-SE/2","minFL":215,"maxFL":660},"geometry":{"type":"MultiPolygon","coordinates":[[[[26.153888888888886,42.50694444444444],[26.189444444444444,42.59],[26.228888888888886,42.681666666666665],[26.942777777777778,42.302499999999995],[27.172222222222224,42.17944444444444],[27.296944444444446,42.12222222222222],[27.59722222222222,41.93805555555555],[27.54527777777778,41.91888888888889],[27.36916666666667,42.052499999999995],[27.28611111111111,42.10027777777778],[27.18027777777778,42.06333333333333],[27.029999999999998,42.07972222222222],[26.96861111111111,42],[26.925833333333333,41.99638888888889],[26.153888888888886,42.50694444444444]]]]}},
    {"type":"Feature","properties":{"id":"LB-SF/1","minFL":105,"maxFL":215},"geometry":{"type":"MultiPolygon","coordinates":[[[[27.172222222222224,42.17944444444444],[27.213055555555556,42.18277777777777],[27.473055555555554,42.20166666666667],[27.848333333333333,41.99861111111111],[27.81527777777778,41.95277777777778],[27.684722222222224,41.97],[27.59722222222222,41.93805555555555],[27.296944444444446,42.12222222222222],[27.172222222222224,42.17944444444444]]]]}},
    {"type":"Feature","properties":{"id":"LB-SF/1-2","minFL":105,"maxFL":215},"geometry":{"type":"MultiPolygon","coordinates":[[[[26.141944444444444,42.751666666666665],[26.236666666666668,42.80972222222222],[26.621666666666666,42.70777777777778],[26.81527777777778,42.60416666666667],[26.898055555555555,42.408055555555556],[26.942777777777778,42.302499999999995],[26.228888888888886,42.681666666666665],[26.141944444444444,42.751666666666665]]]]}},
    {"type":"Feature","properties":{"id":"LB-SF/2","minFL":215,"maxFL":660},"geometry":{"type":"MultiPolygon","coordinates":[[[[26.141944444444444,42.751666666666665],[26.236666666666668,42.80972222222222],[26.621666666666666,42.70777777777778],[26.81527777777778,42.60416666666667],[27.473055555555554,42.20166666666667],[27.848333333333333,41.99861111111111],[27.81527777777778,41.95277777777778],[27.684722222222224,41.97],[27.59722222222222,41.93805555555555],[27.296944444444446,42.12222222222222],[27.172222222222224,42.17944444444444],[26.942777777777778,42.302499999999995],[26.228888888888886,42.681666666666665],[26.141944444444444,42.751666666666665]]]]}},
    {"type":"Feature","properties":{"id":"LB-SG/1","minFL":105,"maxFL":215},"geometry":{"type":"MultiPolygon","coordinates":[[[[27.473055555555554,42.20166666666667],[27.63138888888889,42.213055555555556],[27.835277777777776,42.22694444444445],[27.850833333333334,42.24666666666667],[27.961111111111112,42.166666666666664],[28.243333333333336,41.984722222222224],[28.033333333333335,41.983333333333334],[27.848333333333333,41.99861111111111],[27.473055555555554,42.20166666666667]]]]}},
    {"type":"Feature","properties":{"id":"LB-SG/1-2","minFL":105,"maxFL":215},"geometry":{"type":"MultiPolygon","coordinates":[[[[26.236666666666668,42.80972222222222],[26.76833333333333,42.82833333333333],[26.767777777777777,42.71638888888889],[26.81527777777778,42.60416666666667],[26.621666666666666,42.70777777777778],[26.236666666666668,42.80972222222222]]]]}},
    {"type":"Feature","properties":{"id":"LB-SG/2","minFL":215,"maxFL":660},"geometry":{"type":"MultiPolygon","coordinates":[[[[26.236666666666668,42.80972222222222],[26.76833333333333,42.82833333333333],[26.879444444444445,42.83083333333334],[27.040277777777778,42.79555555555555],[27.850833333333334,42.24666666666667],[27.961111111111112,42.166666666666664],[28.243333333333336,41.984722222222224],[28.033333333333335,41.983333333333334],[27.848333333333333,41.99861111111111],[27.473055555555554,42.20166666666667],[26.81527777777778,42.60416666666667],[26.621666666666666,42.70777777777778],[26.236666666666668,42.80972222222222]]]]}},
    {"type":"Feature","properties":{"id":"LB-VA/1","minFL":105,"maxFL":135},"geometry":{"type":"MultiPolygon","coordinates":[[[[25.62777777777778,43.675],[25.66916666666667,43.69416666666666],[25.732499999999998,43.696666666666665],[25.761111111111113,43.70305555555556],[25.784722222222225,43.71333333333334],[25.799444444444447,43.72972222222222],[25.81416666666667,43.749722222222225],[25.834999999999997,43.757222222222225],[25.860277777777778,43.76777777777777],[25.875555555555557,43.78333333333333],[25.894444444444446,43.794444444444444],[25.912777777777777,43.814166666666665],[25.926944444444445,43.834722222222226],[25.941111111111113,43.84861111111111],[25.960555555555555,43.864444444444445],[25.97583333333333,43.87027777777778],[25.984722222222224,43.874722222222225],[26,43.88305555555556],[26.02722222222222,43.89666666666667],[26.052777777777777,43.905833333333334],[26.072499999999998,43.92388888888889],[26.085277777777776,43.94444444444444],[26.099444444444444,43.95777777777778],[26.115000000000002,43.970555555555556],[26.1375,43.98166666666667],[26.166666666666668,43.98555555555556],[26.19472222222222,43.986666666666665],[26.21722222222222,43.99111111111111],[26.238333333333333,43.99916666666667],[26.260277777777777,44.00833333333333],[26.278888888888886,44.02027777777778],[26.300833333333333,44.02916666666667],[26.328055555555554,44.035555555555554],[26.352222222222224,44.038888888888884],[26.380555555555556,44.04611111111111],[26.402777777777775,44.04222222222222],[26.426944444444445,44.038333333333334],[26.459722222222222,44.043055555555554],[26.489166666666666,44.04888888888889],[26.519166666666667,44.0575],[26.54416666666667,44.06055555555555],[26.569166666666668,44.059999999999995],[26.593888888888888,44.05777777777777],[26.625555555555557,44.06194444444444],[26.662499999999998,44.06388888888888],[26.67777777777778,44.07416666666667],[26.710555555555555,44.07888888888889],[26.741666666666667,44.08111111111111],[26.765555555555554,44.08527777777778],[26.78777777777778,44.09305555555556],[26.8175,44.10638888888889],[26.850833333333334,44.11805555555556],[26.878333333333334,44.12777777777778],[26.90361111111111,44.135],[26.944444444444446,44.1375],[26.980277777777776,44.13805555555555],[27.016944444444444,44.14055555555556],[27.038333333333334,44.14805555555556],[27.070555555555554,44.1425],[27.09472222222222,44.1425],[27.120555555555555,44.14527777777778],[27.149444444444445,44.140277777777776],[27.176944444444445,44.126666666666665],[27.20583333333333,44.121944444444445],[27.221666666666664,44.121944444444445],[27.2375,44.121944444444445],[27.261388888888888,44.12916666666667],[27.283333333333335,44.11666666666667],[27.24638888888889,44.06222222222222],[27.229444444444443,44.040277777777774],[27.379166666666666,43.72138888888889],[27.226388888888888,43.63472222222222],[26.930833333333336,43.55555555555555],[26.847777777777775,43.39694444444444],[26.981666666666666,43.271388888888886],[27.123055555555556,43.13805555555555],[26.769444444444442,42.980555555555554],[26.666666666666668,42.983333333333334],[26.425833333333333,43.097500000000004],[26.416666666666668,43.26416666666667],[26.206666666666667,43.2575],[25.62777777777778,43.675]]]]}},
    {"type":"Feature","properties":{"id":"LB-VA/2","minFL":135,"maxFL":215},"geometry":{"type":"MultiPolygon","coordinates":[[[[25.62777777777778,43.675],[25.66916666666667,43.69416666666666],[25.732499999999998,43.696666666666665],[25.761111111111113,43.70305555555556],[25.784722222222225,43.71333333333334],[25.799444444444447,43.72972222222222],[25.81416666666667,43.749722222222225],[25.834999999999997,43.757222222222225],[25.860277777777778,43.76777777777777],[25.875555555555557,43.78333333333333],[25.894444444444446,43.794444444444444],[25.912777777777777,43.814166666666665],[25.926944444444445,43.834722222222226],[25.941111111111113,43.84861111111111],[25.960555555555555,43.864444444444445],[25.97583333333333,43.87027777777778],[25.984722222222224,43.874722222222225],[26,43.88305555555556],[26.02722222222222,43.89666666666667],[26.052777777777777,43.905833333333334],[26.072499999999998,43.92388888888889],[26.085277777777776,43.94444444444444],[26.099444444444444,43.95777777777778],[26.115000000000002,43.970555555555556],[26.1375,43.98166666666667],[26.166666666666668,43.98555555555556],[26.19472222222222,43.986666666666665],[26.21722222222222,43.99111111111111],[26.238333333333333,43.99916666666667],[26.260277777777777,44.00833333333333],[26.278888888888886,44.02027777777778],[26.300833333333333,44.02916666666667],[26.328055555555554,44.035555555555554],[26.352222222222224,44.038888888888884],[26.380555555555556,44.04611111111111],[26.402777777777775,44.04222222222222],[26.426944444444445,44.038333333333334],[26.459722222222222,44.043055555555554],[26.489166666666666,44.04888888888889],[26.519166666666667,44.0575],[26.54416666666667,44.06055555555555],[26.569166666666668,44.059999999999995],[26.593888888888888,44.05777777777777],[26.625555555555557,44.06194444444444],[26.662499999999998,44.06388888888888],[26.67777777777778,44.07416666666667],[26.710555555555555,44.07888888888889],[26.741666666666667,44.08111111111111],[26.765555555555554,44.08527777777778],[26.78777777777778,44.09305555555556],[26.8175,44.10638888888889],[26.850833333333334,44.11805555555556],[26.878333333333334,44.12777777777778],[26.90361111111111,44.135],[26.944444444444446,44.1375],[26.980277777777776,44.13805555555555],[27.016944444444444,44.14055555555556],[27.038333333333334,44.14805555555556],[27.070555555555554,44.1425],[27.09472222222222,44.1425],[27.120555555555555,44.14527777777778],[27.149444444444445,44.140277777777776],[27.176944444444445,44.126666666666665],[27.20583333333333,44.121944444444445],[27.221666666666664,44.121944444444445],[27.2375,44.121944444444445],[27.261388888888888,44.12916666666667],[27.283333333333335,44.11666666666667],[27.24638888888889,44.06222222222222],[27.229444444444443,44.040277777777774],[27.379166666666666,43.72138888888889],[27.226388888888888,43.63472222222222],[26.930833333333336,43.55555555555555],[26.847777777777775,43.39694444444444],[26.981666666666666,43.271388888888886],[27.123055555555556,43.13805555555555],[26.769444444444442,42.980555555555554],[26.666666666666668,42.983333333333334],[26.425833333333333,43.097500000000004],[26.206666666666667,43.2575],[25.62777777777778,43.675]]]]}},
    {"type":"Feature","properties":{"id":"LB-VA/3","minFL":215,"maxFL":245},"geometry":{"type":"MultiPolygon","coordinates":[[[[25.62777777777778,43.675],[25.66916666666667,43.69416666666666],[25.732499999999998,43.696666666666665],[25.761111111111113,43.70305555555556],[25.784722222222225,43.71333333333334],[25.799444444444447,43.72972222222222],[25.81416666666667,43.749722222222225],[25.834999999999997,43.757222222222225],[25.860277777777778,43.76777777777777],[25.875555555555557,43.78333333333333],[25.894444444444446,43.794444444444444],[25.912777777777777,43.814166666666665],[25.926944444444445,43.834722222222226],[25.941111111111113,43.84861111111111],[25.960555555555555,43.864444444444445],[25.97583333333333,43.87027777777778],[25.984722222222224,43.874722222222225],[26,43.88305555555556],[26.02722222222222,43.89666666666667],[26.052777777777777,43.905833333333334],[26.072499999999998,43.92388888888889],[26.085277777777776,43.94444444444444],[26.099444444444444,43.95777777777778],[26.115000000000002,43.970555555555556],[26.1375,43.98166666666667],[26.166666666666668,43.98555555555556],[26.19472222222222,43.986666666666665],[26.21722222222222,43.99111111111111],[26.238333333333333,43.99916666666667],[26.260277777777777,44.00833333333333],[26.278888888888886,44.02027777777778],[26.300833333333333,44.02916666666667],[26.328055555555554,44.035555555555554],[26.352222222222224,44.038888888888884],[26.380555555555556,44.04611111111111],[26.402777777777775,44.04222222222222],[26.426944444444445,44.038333333333334],[26.459722222222222,44.043055555555554],[26.489166666666666,44.04888888888889],[26.519166666666667,44.0575],[26.54416666666667,44.06055555555555],[26.569166666666668,44.059999999999995],[26.593888888888888,44.05777777777777],[26.625555555555557,44.06194444444444],[26.662499999999998,44.06388888888888],[26.67777777777778,44.07416666666667],[26.710555555555555,44.07888888888889],[26.741666666666667,44.08111111111111],[26.765555555555554,44.08527777777778],[26.78777777777778,44.09305555555556],[26.8175,44.10638888888889],[26.850833333333334,44.11805555555556],[26.878333333333334,44.12777777777778],[26.90361111111111,44.135],[26.944444444444446,44.1375],[26.980277777777776,44.13805555555555],[27.016944444444444,44.14055555555556],[27.038333333333334,44.14805555555556],[27.070555555555554,44.1425],[27.09472222222222,44.1425],[27.120555555555555,44.14527777777778],[27.149444444444445,44.140277777777776],[27.176944444444445,44.126666666666665],[27.20583333333333,44.121944444444445],[27.221666666666664,44.121944444444445],[27.2375,44.121944444444445],[27.261388888888888,44.12916666666667],[27.283333333333335,44.11666666666667],[27.24638888888889,44.06222222222222],[27.229444444444443,44.040277777777774],[27.379166666666666,43.72138888888889],[27.899722222222223,43.58555555555556],[27.5875,43.42305555555555],[27.433611111111112,43.30361111111111],[27.374166666666667,43.02027777777778],[27.343055555555555,42.99277777777778],[26.769444444444442,42.980555555555554],[26.666666666666668,42.983333333333334],[26.425833333333333,43.097500000000004],[26.206666666666667,43.2575],[25.62777777777778,43.675]]]]}},
    {"type":"Feature","properties":{"id":"LB-VA/4","minFL":245,"maxFL":660},"geometry":{"type":"MultiPolygon","coordinates":[[[[25.375555555555557,43.97833333333333],[25.471666666666664,43.97944444444445],[25.742222222222225,43.94638888888888],[25.97583333333333,43.87027777777778],[25.984722222222224,43.874722222222225],[26,43.88305555555556],[26.02722222222222,43.89666666666667],[26.052777777777777,43.905833333333334],[26.072499999999998,43.92388888888889],[26.085277777777776,43.94444444444444],[26.099444444444444,43.95777777777778],[26.115000000000002,43.970555555555556],[26.1375,43.98166666666667],[26.166666666666668,43.98555555555556],[26.19472222222222,43.986666666666665],[26.21722222222222,43.99111111111111],[26.238333333333333,43.99916666666667],[26.260277777777777,44.00833333333333],[26.278888888888886,44.02027777777778],[26.300833333333333,44.02916666666667],[26.328055555555554,44.035555555555554],[26.352222222222224,44.038888888888884],[26.380555555555556,44.04611111111111],[26.402777777777775,44.04222222222222],[26.426944444444445,44.038333333333334],[26.459722222222222,44.043055555555554],[26.489166666666666,44.04888888888889],[26.519166666666667,44.0575],[26.54416666666667,44.06055555555555],[26.569166666666668,44.059999999999995],[26.593888888888888,44.05777777777777],[26.625555555555557,44.06194444444444],[26.662499999999998,44.06388888888888],[26.67777777777778,44.07416666666667],[26.710555555555555,44.07888888888889],[26.741666666666667,44.08111111111111],[26.765555555555554,44.08527777777778],[26.78777777777778,44.09305555555556],[26.8175,44.10638888888889],[26.850833333333334,44.11805555555556],[26.878333333333334,44.12777777777778],[26.90361111111111,44.135],[26.944444444444446,44.1375],[26.980277777777776,44.13805555555555],[27.016944444444444,44.14055555555556],[27.24638888888889,44.06222222222222],[28.184166666666666,43.735],[27.899722222222223,43.58555555555556],[27.5875,43.42305555555555],[27.433611111111112,43.30361111111111],[27.374166666666667,43.02027777777778],[27.343055555555555,42.99277777777778],[26.769444444444442,42.980555555555554],[26.666666666666668,42.983333333333334],[26.425833333333333,43.097500000000004],[26.206666666666667,43.2575],[25.62777777777778,43.675],[25.460833333333333,43.80888888888889],[25.375555555555557,43.97833333333333]]]]}},
    {"type":"Feature","properties":{"id":"LB-VB/1","minFL":105,"maxFL":245},"geometry":{"type":"MultiPolygon","coordinates":[[[[28.552222222222223,43.42444444444444],[28.82027777777778,43.70305555555556],[29,43.666666666666664],[29.033333333333335,43.733333333333334],[29.443055555555556,43.72138888888889],[30.533333333333335,43.68333333333333],[30.75,42.8],[30.072777777777777,42.54055555555556],[28.5575,43.31055555555555],[28.552222222222223,43.42444444444444]]]]}},
    {"type":"Feature","properties":{"id":"LB-VB/2","minFL":245,"maxFL":660},"geometry":{"type":"MultiPolygon","coordinates":[[[[28.42638888888889,43.64861111111111],[28.50111111111111,43.73555555555556],[28.531388888888888,43.72972222222222],[28.561111111111114,43.731944444444444],[28.63,43.74166666666667],[28.82027777777778,43.70305555555556],[29,43.666666666666664],[29.033333333333335,43.733333333333334],[29.443055555555556,43.72138888888889],[30.533333333333335,43.68333333333333],[30.75,42.8],[30.072777777777777,42.54055555555556],[28.5575,43.31055555555555],[27.899722222222223,43.58555555555556],[28.184166666666666,43.735],[28.42638888888889,43.64861111111111]]]]}},
    {"type":"Feature","properties":{"id":"LB-VC/1","minFL":105,"maxFL":215},"geometry":{"type":"MultiPolygon","coordinates":[[[[27.850833333333334,42.24666666666667],[28.061666666666667,42.50527777777778],[28.304444444444446,42.33638888888889],[28.361666666666668,42.296388888888885],[28.445833333333333,42.00888888888889],[28.31416666666667,41.98527777777778],[28.243333333333336,41.984722222222224],[27.961111111111112,42.166666666666664],[27.850833333333334,42.24666666666667]]]]}},
    {"type":"Feature","properties":{"id":"LB-VC/2","minFL":215,"maxFL":660},"geometry":{"type":"MultiPolygon","coordinates":[[[[26.666666666666668,42.983333333333334],[26.769444444444442,42.980555555555554],[27.343055555555555,42.99277777777778],[28.061666666666667,42.50527777777778],[28.304444444444446,42.33638888888889],[28.361666666666668,42.296388888888885],[28.445833333333333,42.00888888888889],[28.31416666666667,41.98527777777778],[28.243333333333336,41.984722222222224],[27.961111111111112,42.166666666666664],[27.850833333333334,42.24666666666667],[27.040277777777778,42.79555555555555],[26.879444444444445,42.83083333333334],[26.769166666666667,42.8975],[26.666666666666668,42.983333333333334]]]]}},
    {"type":"Feature","properties":{"id":"LB-VD/1","minFL":105,"maxFL":215},"geometry":{"type":"MultiPolygon","coordinates":[[[[28.061666666666667,42.50527777777778],[28.135833333333334,42.59638888888889],[28.141666666666666,42.809444444444445],[28.08833333333333,42.88333333333333],[28.470277777777778,43.027499999999996],[28.518055555555556,43.04944444444444],[28.563055555555557,43.18555555555555],[28.5575,43.31055555555555],[30.072777777777777,42.54055555555556],[29.644166666666667,42.37166666666667],[29.529999999999998,42.32416666666667],[29.398055555555555,42.27472222222222],[29.255555555555556,42.217777777777776],[29,42.11666666666667],[28.701944444444443,42.05916666666666],[28.445833333333333,42.00888888888889],[28.361666666666668,42.296388888888885],[28.304444444444446,42.33638888888889],[28.061666666666667,42.50527777777778]]]]}},
    {"type":"Feature","properties":{"id":"LB-VD/2","minFL":215,"maxFL":660},"geometry":{"type":"MultiPolygon","coordinates":[[[[27.343055555555555,42.99277777777778],[27.374166666666667,43.02027777777778],[27.433611111111112,43.30361111111111],[27.5875,43.42305555555555],[27.899722222222223,43.58555555555556],[28.5575,43.31055555555555],[30.072777777777777,42.54055555555556],[29.644166666666667,42.37166666666667],[29.529999999999998,42.32416666666667],[29.398055555555555,42.27472222222222],[29.255555555555556,42.217777777777776],[29,42.11666666666667],[28.701944444444443,42.05916666666666],[28.445833333333333,42.00888888888889],[28.361666666666668,42.296388888888885],[28.304444444444446,42.33638888888889],[28.061666666666667,42.50527777777778],[27.343055555555555,42.99277777777778]]]]}},
    {"type":"Feature","properties":{"id":"LB-SF-TMA","minFL":0,"maxFL":245},"geometry":{"type":"MultiPolygon","coordinates":[[[[22.79416666666667,43.478611111111114],[23.09111111111111,43.39222222222222],[23.31277777777778,43.32833333333333],[23.80777777777778,43.151111111111106],[24.220555555555553,43.09527777777778],[24.16333333333333,42.705000000000005],[24.129444444444445,42.66027777777778],[24.029444444444444,42.52777777777778],[24.371111111111112,42.37583333333333],[24.25583333333333,42.23416666666667],[24.078055555555554,42.31361111111111],[23.90694444444444,42.30916666666666],[23.36277777777778,42.29333333333333],[23.173333333333336,42.286944444444444],[22.691666666666666,42.269999999999996],[22.649166666666666,42.88194444444444],[22.673333333333336,42.87222222222222],[22.68888888888889,42.880833333333335],[22.7125,42.88666666666666],[22.738333333333333,42.88972222222222],[22.754722222222224,42.905],[22.765833333333333,42.921388888888885],[22.77638888888889,42.9375],[22.783055555555556,42.95444444444445],[22.7875,42.976111111111116],[22.80388888888889,42.992222222222225],[22.834166666666665,42.998333333333335],[22.85388888888889,43.005],[22.869444444444444,43.01972222222222],[22.891666666666666,43.026944444444446],[22.906388888888888,43.045833333333334],[22.918055555555558,43.064166666666665],[22.93027777777778,43.08277777777778],[22.955555555555556,43.09],[22.96972222222222,43.105000000000004],[22.983333333333334,43.12444444444444],[22.991666666666667,43.14833333333333],[22.992222222222225,43.16583333333333],[22.99638888888889,43.18722222222222],[22.979444444444443,43.20416666666667],[22.954444444444444,43.20638888888889],[22.934444444444445,43.20944444444445],[22.912777777777777,43.21805555555556],[22.891666666666666,43.23388888888889],[22.87472222222222,43.25111111111111],[22.859444444444446,43.271388888888886],[22.84472222222222,43.2875],[22.833888888888886,43.30972222222222],[22.826944444444443,43.32944444444445],[22.799444444444447,43.340833333333336],[22.779722222222222,43.356944444444444],[22.766111111111112,43.37166666666667],[22.746111111111112,43.38527777777778],[22.71972222222222,43.39333333333333],[22.68722222222222,43.394999999999996],[22.668333333333333,43.405277777777776],[22.659166666666664,43.425555555555555],[22.63611111111111,43.43055555555555],[22.613055555555558,43.43083333333333],[22.591388888888886,43.44194444444444],[22.58361111111111,43.45944444444445],[22.558611111111112,43.46222222222222],[22.539444444444445,43.47027777777778],[22.5,43.49166666666667],[22.5,43.49944444444444],[22.502777777777776,43.53194444444444],[22.500833333333333,43.55083333333333],[22.498333333333335,43.55833333333333],[22.492222222222225,43.56638888888889],[22.79416666666667,43.478611111111114]]]]}},
    {"type":"Feature","properties":{"id":"LB-WN-TMA/1","minFL":0,"maxFL":105},"geometry":{"type":"MultiPolygon","coordinates":[[[[27.379166666666666,43.72138888888889],[27.899722222222223,43.58555555555556],[28.552222222222223,43.42444444444444],[28.5575,43.31055555555555],[28.563055555555557,43.18555555555555],[28.518055555555556,43.04944444444444],[28.470277777777778,43.027499999999996],[28.08833333333333,42.88333333333333],[27.900555555555552,42.88333333333333],[27.533055555555556,42.945277777777775],[27.374166666666667,43.02027777777778],[27.123055555555556,43.13805555555555],[26.981666666666666,43.271388888888886],[26.847777777777775,43.39694444444444],[26.930833333333336,43.55555555555555],[27.226388888888888,43.63472222222222],[27.379166666666666,43.72138888888889]]]]}},
    {"type":"Feature","properties":{"id":"LB-WN-TMA/2","minFL":105,"maxFL":215},"geometry":{"type":"MultiPolygon","coordinates":[[[[27.379166666666666,43.72138888888889],[27.229444444444443,44.040277777777774],[27.24638888888889,44.06222222222222],[27.283333333333335,44.11666666666667],[27.282777777777778,44.1],[27.29527777777778,44.08083333333334],[27.316111111111113,44.07361111111111],[27.3475,44.0675],[27.368055555555557,44.053888888888885],[27.383055555555558,44.03388888888889],[27.402777777777775,44.019444444444446],[27.434166666666666,44.02027777777778],[27.4575,44.02472222222222],[27.490555555555556,44.028888888888886],[27.5175,44.02444444444444],[27.54138888888889,44.02333333333333],[27.56638888888889,44.019444444444446],[27.600833333333334,44.016666666666666],[27.62472222222222,44.022777777777776],[27.63722222222222,44.04055555555556],[27.657777777777778,44.03777777777778],[27.666666666666668,44.03333333333333],[27.675555555555558,44.02166666666667],[27.68777777777778,44.00361111111111],[27.69638888888889,43.981944444444444],[27.711666666666666,43.96555555555556],[27.732499999999998,43.955555555555556],[27.760277777777777,43.95666666666667],[27.7875,43.96138888888889],[27.81638888888889,43.96416666666667],[27.841388888888886,43.966944444444444],[27.865833333333335,43.98166666666667],[27.888055555555557,43.99888888888889],[27.914166666666667,44.00555555555555],[27.9325,43.99527777777778],[27.939722222222223,43.976111111111116],[27.94361111111111,43.956944444444446],[27.9525,43.9375],[27.96944444444444,43.915277777777774],[27.977777777777778,43.89888888888889],[27.984722222222224,43.87694444444445],[27.989722222222223,43.86027777777778],[27.998611111111114,43.84305555555556],[28.02722222222222,43.836666666666666],[28.053333333333335,43.825],[28.091388888888886,43.81222222222222],[28.130555555555556,43.79888888888889],[28.1575,43.78972222222222],[28.181944444444447,43.78361111111111],[28.20888888888889,43.77777777777778],[28.240277777777777,43.76888888888889],[28.270555555555553,43.76361111111111],[28.298333333333336,43.75861111111111],[28.330555555555556,43.75527777777778],[28.36388888888889,43.75],[28.391388888888887,43.74277777777778],[28.425,43.73583333333333],[28.50111111111111,43.73555555555556],[28.531388888888888,43.72972222222222],[28.561111111111114,43.731944444444444],[28.63,43.74166666666667],[28.82027777777778,43.70305555555556],[28.552222222222223,43.42444444444444],[28.5575,43.31055555555555],[28.563055555555557,43.18555555555555],[28.518055555555556,43.04944444444444],[28.470277777777778,43.027499999999996],[28.08833333333333,42.88333333333333],[27.900555555555552,42.88333333333333],[27.533055555555556,42.945277777777775],[27.374166666666667,43.02027777777778],[27.123055555555556,43.13805555555555],[26.981666666666666,43.271388888888886],[26.847777777777775,43.39694444444444],[26.930833333333336,43.55555555555555],[27.226388888888888,43.63472222222222],[27.379166666666666,43.72138888888889]]]]}},
    {"type":"Feature","properties":{"id":"LB-WN-TMA/3","minFL":215,"maxFL":245},"geometry":{"type":"MultiPolygon","coordinates":[[[[27.379166666666666,43.72138888888889],[27.229444444444443,44.040277777777774],[27.24638888888889,44.06222222222222],[27.283333333333335,44.11666666666667],[27.282777777777778,44.1],[27.29527777777778,44.08083333333334],[27.316111111111113,44.07361111111111],[27.3475,44.0675],[27.368055555555557,44.053888888888885],[27.383055555555558,44.03388888888889],[27.402777777777775,44.019444444444446],[27.434166666666666,44.02027777777778],[27.4575,44.02472222222222],[27.490555555555556,44.028888888888886],[27.5175,44.02444444444444],[27.54138888888889,44.02333333333333],[27.56638888888889,44.019444444444446],[27.600833333333334,44.016666666666666],[27.62472222222222,44.022777777777776],[27.63722222222222,44.04055555555556],[27.657777777777778,44.03777777777778],[27.666666666666668,44.03333333333333],[27.675555555555558,44.02166666666667],[27.68777777777778,44.00361111111111],[27.69638888888889,43.981944444444444],[27.711666666666666,43.96555555555556],[27.732499999999998,43.955555555555556],[27.760277777777777,43.95666666666667],[27.7875,43.96138888888889],[27.81638888888889,43.96416666666667],[27.841388888888886,43.966944444444444],[27.865833333333335,43.98166666666667],[27.888055555555557,43.99888888888889],[27.914166666666667,44.00555555555555],[27.9325,43.99527777777778],[27.939722222222223,43.976111111111116],[27.94361111111111,43.956944444444446],[27.9525,43.9375],[27.96944444444444,43.915277777777774],[27.977777777777778,43.89888888888889],[27.984722222222224,43.87694444444445],[27.989722222222223,43.86027777777778],[27.998611111111114,43.84305555555556],[28.02722222222222,43.836666666666666],[28.053333333333335,43.825],[28.091388888888886,43.81222222222222],[28.130555555555556,43.79888888888889],[28.1575,43.78972222222222],[28.181944444444447,43.78361111111111],[28.20888888888889,43.77777777777778],[28.240277777777777,43.76888888888889],[28.270555555555553,43.76361111111111],[28.298333333333336,43.75861111111111],[28.330555555555556,43.75527777777778],[28.36388888888889,43.75],[28.391388888888887,43.74277777777778],[28.425,43.73583333333333],[28.50111111111111,43.73555555555556],[28.531388888888888,43.72972222222222],[28.561111111111114,43.731944444444444],[28.63,43.74166666666667],[28.82027777777778,43.70305555555556],[28.552222222222223,43.42444444444444],[28.5575,43.31055555555555],[27.899722222222223,43.58555555555556],[27.379166666666666,43.72138888888889]]]]}},
    {"type":"Feature","properties":{"id":"LB-BG-TMA","minFL":0,"maxFL":215},"geometry":{"type":"MultiPolygon","coordinates":[[[[27.123055555555556,43.13805555555555],[27.374166666666667,43.02027777777778],[27.533055555555556,42.945277777777775],[27.900555555555552,42.88333333333333],[28.08833333333333,42.88333333333333],[28.141666666666666,42.809444444444445],[28.135833333333334,42.59638888888889],[28.11916666666667,42.57555555555556],[28.061666666666667,42.50527777777778],[28.000555555555554,42.43055555555555],[27.971666666666664,42.394999999999996],[27.850833333333334,42.24666666666667],[27.835277777777776,42.22694444444445],[27.63138888888889,42.213055555555556],[27.473055555555554,42.20166666666667],[27.213055555555556,42.18277777777777],[27.172222222222224,42.17944444444444],[27,42.166666666666664],[26.942777777777778,42.302499999999995],[26.898055555555555,42.408055555555556],[26.81527777777778,42.60416666666667],[26.767777777777777,42.71638888888889],[26.76833333333333,42.82833333333333],[26.769166666666667,42.8975],[26.666666666666668,42.983333333333334],[26.769444444444442,42.980555555555554],[26.834444444444443,43.010555555555555],[27.123055555555556,43.13805555555555]]]]}},
    {"type":"Feature","properties":{"id":"LB-PD-TMA","minFL":0,"maxFL":135},"geometry":{"type":"MultiPolygon","coordinates":[[[[24.371111111111112,42.37583333333333],[24.470277777777778,42.374722222222225],[24.72472222222222,42.26277777777778],[24.866666666666667,42.2],[25.00638888888889,42.20638888888889],[25.03611111111111,42.20777777777778],[25.233333333333334,42.21666666666667],[25.467499999999998,42.141666666666666],[25.452222222222222,42.06083333333333],[25.44,41.99583333333334],[25.421111111111113,41.89388888888889],[25.399444444444445,41.77722222222222],[25.209166666666665,41.794444444444444],[25.103611111111114,41.80416666666667],[24.75,41.95],[24.53222222222222,42.038888888888884],[24.42638888888889,42.11388888888889],[24.25583333333333,42.23416666666667],[24.371111111111112,42.37583333333333]]]]}},
    {"type":"Feature","properties":{"id":"LB-GO-TMA","minFL":0,"maxFL":135},"geometry":{"type":"MultiPolygon","coordinates":[[[[25.420833333333334,43.349722222222226],[26.022777777777776,43.33638888888889],[26.14527777777778,43.255833333333335],[26.206666666666667,43.2575],[26.416666666666668,43.26416666666667],[26.425833333333333,43.097500000000004],[26.15861111111111,43.08916666666667],[25.9,42.97833333333333],[25.56638888888889,43.032777777777774],[25.170833333333334,43.05083333333333],[24.98611111111111,43.04388888888889],[24.974166666666665,43.21055555555556],[25.159166666666664,43.2175],[25.420833333333334,43.349722222222226]]]]}}
  ]
}